NORAD_CAT_ID,OBJECT_NAME,OBJECT_TYPE,EPOCH,MEAN_MOTION,ECCENTRICITY,INCLINATION,RA_OF_ASC_NODE,ARG_OF_PERICENTER,MEAN_ANOMALY,BSTAR,MEAN_MOTION_DOT,MEAN_MOTION_DDOT,TLE_LINE0,TLE_LINE1,TLE_LINE2,SEMIMAJOR_AXIS,PERIOD,APOGEE,PERIGEE,DECAYED
51969.0,STARLINK-3680,PAYLOAD,2023-12-01 16:57:46,15.06392409,0.0001523,53.055,148.09,105.2872,254.8285,-1.5024e-05,-5.05e-06,0.0,0 STARLINK-3680,1 51969U 22025P   23335.70678249 -.00000505  00000-0 -15024-4 0  9998,2 51969  53.0550 148.0900 0001523 105.2872 254.8285 15.06392409 97131,6925.372,95.593,548.292,546.182,0.0
51969.0,STARLINK-3680,PAYLOAD,2023-12-02 12:04:13,15.06404875,0.0001383,53.054,144.5103,110.7464,249.3673,9.1376e-05,1.08e-05,0.0,0 STARLINK-3680,1 51969U 22025P   23336.50293442  .00001080  00000-0  91376-4 0  9996,2 51969  53.0540 144.5103 0001383 110.7464 249.3673 15.06404875 97252,6925.334,95.592,548.156,546.241,0.0
51969.0,STARLINK-3680,PAYLOAD,2023-12-02 16:50:50,15.06404799,0.0001427,53.0552,143.6218,101.5832,258.5317,0.00014018,1.807e-05,0.0,0 STARLINK-3680,1 51969U 22025P   23336.70197397  .00001807  00000-0  14018-3 0  9994,2 51969  53.0552 143.6218 0001427 101.5832 258.5317 15.06404799 96170,6925.334,95.592,548.187,546.211,0.0
51969.0,STARLINK-3680,PAYLOAD,2023-12-03 11:57:20,15.06389246,0.0001439,53.0572,140.0498,92.0908,268.0245,9.4534e-05,1.126e-05,0.0,0 STARLINK-3680,1 51969U 22025P   23337.49815002  .00001126  00000-0  94534-4 0  9997,2 51969  53.0572 140.0498 0001439  92.0908 268.0245 15.06389246 97406,6925.382,95.593,548.243,546.25,0.0
51969.0,STARLINK-3680,PAYLOAD,2023-12-03 13:32:52,15.06389533,0.0001443,53.056,139.7474,58.3321,301.7809,7.3507e-05,8.13e-06,0.0,0 STARLINK-3680,1 51969U 22025P   23337.56449764  .00000813  00000-0  73507-4 0  9992,2 51969  53.0560 139.7474 0001443  58.3321 301.7809 15.06389533 96309,6925.381,95.593,548.245,546.246,0.0
51969.0,STARLINK-3680,PAYLOAD,2023-12-03 18:19:30,15.06383269,0.0001383,53.055,138.8537,72.169,287.945,4.5705e-05,3.99e-06,0.0,0 STARLINK-3680,1 51969U 22025P   23337.76354291  .00000399  00000-0  45705-4 0  9992,2 51969  53.0550 138.8537 0001383  72.1690 287.9450 15.06383269 97447,6925.4,95.593,548.223,546.307,0.0
51969.0,STARLINK-3680,PAYLOAD,2023-12-04 10:14:53,15.06393381,0.0001479,53.055,135.875,75.9704,284.145,-3.0723e-05,-7.39e-06,0.0,0 STARLINK-3680,1 51969U 22025P   23338.42700973 -.00000739  00000-0 -30723-4 0  9992,2 51969  53.0550 135.8750 0001479  75.9704 284.1450 15.06393381 97540,6925.369,95.593,548.258,546.21,0.0
51969.0,STARLINK-3680,PAYLOAD,2023-12-05 10:07:58,15.06395676,0.0001403,53.0542,131.4089,86.133,273.9819,0.00016841,2.228e-05,0.0,0 STARLINK-3680,1 51969U 22025P   23339.42220388  .00002228  00000-0  16841-3 0  9997,2 51969  53.0542 131.4089 0001403  86.1330 273.9819 15.06395676 97694,6925.362,95.592,548.198,546.255,0.0
51969.0,STARLINK-3680,PAYLOAD,2023-12-05 13:19:02,15.06397689,0.0001388,53.0538,130.8137,87.0534,273.0613,0.00017913,2.387e-05,0.0,0 STARLINK-3680,1 51969U 22025P   23339.55489574  .00002387  00000-0  17913-3 0  9992,2 51969  53.0538 130.8137 0001388  87.0534 273.0613 15.06397689 96603,6925.356,95.592,548.182,546.259,0.0
51969.0,STARLINK-3680,PAYLOAD,2023-12-06 13:12:09,15.06388057,0.0001475,53.0551,126.3467,80.1436,279.972,-3.79e-05,-8.46e-06,0.0,0 STARLINK-3680,1 51969U 22025P   23340.55011413 -.00000846  00000-0 -37900-4 0  9996,2 51969  53.0551 126.3467 0001475  80.1436 279.9720 15.06388057 96755,6925.385,95.593,548.272,546.229,0.0
51969.0,STARLINK-3680,PAYLOAD,2023-12-07 13:05:14,15.06401247,0.0001385,53.0552,121.8765,90.0608,270.054,7.57e-05,8.46e-06,0.0,0 STARLINK-3680,1 51969U 22025P   23341.54530605  .00000846  00000-0  75700-4 0  9993,2 51969  53.0552 121.8765 0001385  90.0608 270.0540 15.06401247 96904,6925.345,95.592,548.169,546.251,0.0
51969.0,STARLINK-3680,PAYLOAD,2023-12-07 19:27:23,15.06399861,0.0002099,53.0553,120.6834,119.2145,240.9054,0.00013983,1.802e-05,0.0,0 STARLINK-3680,1 51969U 22025P   23341.81068934  .00001802  00000-0  13983-3 0  9991,2 51969  53.0553 120.6834 0002099 119.2145 240.9054 15.06399861 98054,6925.349,95.592,548.668,545.76,0.0
51969.0,STARLINK-3680,PAYLOAD,2023-12-08 12:58:19,15.06403752,0.000209,53.0543,117.4044,121.1607,238.9587,3.4372e-05,2.3e-06,0.0,0 STARLINK-3680,1 51969U 22025P   23342.54050503  .00000230  00000-0  34372-4 0  9995,2 51969  53.0543 117.4044 0002090 121.1607 238.9587 15.06403752 97058,6925.337,95.592,548.649,545.755,0.0
51969.0,STARLINK-3680,PAYLOAD,2023-12-09 12:51:25,15.06395197,0.0001844,53.0542,112.9372,116.0887,244.0292,-2.9836e-05,-7.26e-06,0.0,0 STARLINK-3680,1 51969U 22025P   23343.53571427 -.00000726  00000-0 -29836-4 0  9999,2 51969  53.0542 112.9372 0001844 116.0887 244.0292 15.06395197 97201,6925.363,95.592,548.505,545.951,0.0
51969.0,STARLINK-3680,PAYLOAD,2023-12-09 19:13:35,15.06392087,0.0001587,53.0549,111.7472,99.3231,260.7938,-7.1708e-05,-1.349e-05,0.0,0 STARLINK-3680,1 51969U 22025P   23343.80110649 -.00001349  00000-0 -71708-4 0  9991,2 51969  53.0549 111.7472 0001587  99.3231 260.7938 15.06392087 98350,6925.373,95.593,548.337,546.139,0.0
51969.0,STARLINK-3680,PAYLOAD,2023-12-10 07:57:54,15.06394739,0.0001387,53.0551,109.3691,87.2743,272.8405,2.8218e-05,1.39e-06,0.0,0 STARLINK-3680,1 51969U 22025P   23344.33187706  .00000139  00000-0  28218-4 0  9990,2 51969  53.0551 109.3691 0001387  87.2743 272.8405 15.06394739 98439,6925.365,95.592,548.19,546.269,0.0
51969.0,STARLINK-3680,PAYLOAD,2023-12-10 14:20:03,15.06397225,0.0001435,53.0554,108.1787,90.3999,269.7154,3.6301e-05,2.59e-06,0.0,0 STARLINK-3680,1 51969U 22025P   23344.59726265  .00000259  00000-0  36301-4 0  9992,2 51969  53.0554 108.1787 0001435  90.3999 269.7154 15.06397225 97367,6925.357,95.592,548.216,546.228,0.0
51969.0,STARLINK-3680,PAYLOAD,2023-12-10 15:55:35,15.06398817,0.0001444,53.0555,107.8807,78.7101,281.4051,5.1589e-05,4.87e-06,0.0,0 STARLINK-3680,1 51969U 22025P   23344.66360858  .00000487  00000-0  51589-4 0  9990,2 51969  53.0555 107.8807 0001444  78.7101 281.4051 15.06398817 97378,6925.352,95.592,548.217,546.217,0.0
51969.0,STARLINK-3680,PAYLOAD,2023-12-11 14:13:09,15.06395981,0.0001583,53.056,103.7119,72.2584,287.8578,2.3797e-05,7.3e-07,0.0,0 STARLINK-3680,1 51969U 22025P   23345.59246866  .00000073  00000-0  23797-4 0  9996,2 51969  53.0560 103.7119 0001583  72.2584 287.8578 15.06395981 97512,6925.361,95.592,548.322,546.13,0.0
51969.0,STARLINK-3680,PAYLOAD,2023-12-11 15:48:42,15.06348824,0.0001616,53.056,103.4149,72.8795,287.2371,0.00068229,9.882e-05,0.0,0 STARLINK-3680,1 51969U 22025P   23345.65882216  .00009882  00000-0  68229-3 0  9993,2 51969  53.0560 103.4149 0001616  72.8795 287.2371 15.06348824 98632,6925.505,95.595,548.49,546.251,0.0
51969.0,STARLINK-3680,PAYLOAD,2023-12-12 14:06:14,15.0639828,0.0001762,53.0562,99.2445,61.7272,298.3894,2.1584e-05,4e-07,0.0,0 STARLINK-3680,1 51969U 22025P   23346.58767102  .00000040  00000-0  21584-4 0  9993,2 51969  53.0562  99.2445 0001762  61.7272 298.3894 15.06398280 97660,6925.354,95.592,548.439,545.999,0.0
51969.0,STARLINK-3680,PAYLOAD,2023-12-13 13:59:19,15.0640301,0.0001473,53.055,94.7793,69.8847,290.23,6.6343e-05,7.07e-06,0.0,0 STARLINK-3680,1 51969U 22025P   23347.58286682  .00000707  00000-0  66343-4 0  9995,2 51969  53.0550  94.7793 0001473  69.8847 290.2300 15.06403010 97817,6925.339,95.592,548.224,546.184,0.0
51969.0,STARLINK-3680,PAYLOAD,2023-12-14 12:16:53,15.06397767,0.0001507,53.0565,90.6046,98.8556,261.2604,-3.5708e-06,-3.35e-06,0.0,0 STARLINK-3680,1 51969U 22025P   23348.51172587 -.00000335  00000-0 -35708-5 0  9998,2 51969  53.0565  90.6046 0001507  98.8556 261.2604 15.06397767 99061,6925.355,95.592,548.264,546.177,0.0
51969.0,STARLINK-3680,PAYLOAD,2023-12-14 13:52:25,15.06398796,0.0001474,53.0561,90.3054,94.5104,265.6053,6.5963e-06,-1.83e-06,0.0,0 STARLINK-3680,1 51969U 22025P   23348.57807180 -.00000183  00000-0  65963-5 0  9994,2 51969  53.0561  90.3054 0001474  94.5104 265.6053 15.06398796 97964,6925.352,95.592,548.238,546.196,0.0
51969.0,STARLINK-3680,PAYLOAD,2023-12-15 12:09:59,15.06389422,0.0001494,53.0556,86.1363,100.3523,259.7635,-0.00012981,-2.214e-05,0.0,0 STARLINK-3680,1 51969U 22025P   23349.50694161 -.00002214  00000-0 -12981-3 0  9999,2 51969  53.0556  86.1363 0001494 100.3523 259.7635 15.06389422 99213,6925.381,95.593,548.281,546.211,0.0
51969.0,STARLINK-3680,PAYLOAD,2023-12-16 12:03:04,15.06400561,0.0002124,53.0558,81.6681,44.5782,315.5378,4.7379e-05,4.24e-06,0.0,0 STARLINK-3680,1 51969U 22025P   23350.50213787  .00000424  00000-0  47379-4 0  9991,2 51969  53.0558  81.6681 0002124  44.5782 315.5378 15.06400561 99364,6925.347,95.592,548.683,545.741,0.0
51969.0,STARLINK-3680,PAYLOAD,2023-12-16 13:38:36,15.0640432,0.0001774,53.057,81.371,68.5246,291.5932,8.7202e-05,1.018e-05,0.0,0 STARLINK-3680,1 51969U 22025P   23350.56848118  .00001018  00000-0  87202-4 0  9998,2 51969  53.0570  81.3710 0001774  68.5246 291.5932 15.06404320 98263,6925.335,95.592,548.429,545.972,0.0
51969.0,STARLINK-3680,PAYLOAD,2023-12-17 11:56:10,15.06397744,0.0001603,53.0567,77.1977,84.7412,275.376,5.79e-05,5.81e-06,0.0,0 STARLINK-3680,1 51969U 22025P   23351.49734237  .00000581  00000-0  57900-4 0  9993,2 51969  53.0567  77.1977 0001603  84.7412 275.3760 15.06397744 99512,6925.355,95.592,548.331,546.11,0.0
51969.0,STARLINK-3680,PAYLOAD,2023-12-17 13:31:42,15.06398349,0.0001629,53.0569,76.902,84.7666,275.3508,7.2057e-05,7.92e-06,0.0,0 STARLINK-3680,1 51969U 22025P   23351.56368885  .00000792  00000-0  72057-4 0  9997,2 51969  53.0569  76.9020 0001629  84.7666 275.3508 15.06398349 98419,6925.354,95.592,548.347,546.09,0.0
51969.0,STARLINK-3680,PAYLOAD,2023-12-18 11:49:14,15.06416618,0.0001767,53.0564,72.7317,72.0151,288.103,1.0446e-05,-1.26e-06,0.0,0 STARLINK-3680,1 51969U 22025P   23352.49253308 -.00000126  00000-0  10446-4 0  9999,2 51969  53.0564  72.7317 0001767  72.0151 288.1030 15.06416618 99669,6925.298,95.591,548.386,545.939,0.0
